ONEWEB-0533             
1 55141U 23004B   26037.93938558  .00000181  00000+0  46692-3 0  9992
2 55141  87.8955  16.5184 0001794  78.3262 281.8068 13.12441957150976
ONEWEB-0541             
1 55142U 23004C   26038.02001323  .00000317  00000+0  85777-3 0  9993
2 55142  87.8826  46.9492 0001918  93.3516 266.7831 13.11414809148882
ONEWEB-0543             
1 55143U 23004D   26038.26326112 -.00000045  00000+0 -14630-3 0  9996
2 55143  87.9197   1.2770 0001504  80.9674 279.1629 13.18686216152570
ONEWEB-0544             
1 55144U 23004E   26038.25665187  .00000006  00000+0 -18546-4 0  9991
2 55144  87.9206   1.2733 0001752  89.7536 270.3797 13.18683791152574
ONEWEB-0560             
1 55145U 23004F   26038.25005848 -.00000035  00000+0 -12061-3 0  9992
2 55145  87.9215   1.2638 0001689  89.7085 270.4241 13.18686204152585
ONEWEB-0565             
1 55146U 23004G   26037.93995913 -.00000016  00000+0 -73724-4 0  9991
2 55146  87.9198   1.3658 0002099  95.4918 264.6453 13.18686336152535
ONEWEB-0567             
1 55147U 23004H   26038.31274067  .00000071  00000+0  14708-3 0  9990
2 55147  87.9213   1.2636 0001933  96.1897 263.9456 13.18687001152589
ONEWEB-0569             
1 55148U 23004J   26038.27767264 -.00000076  00000+0 -24217-3 0  9995
2 55148  87.9039 346.0324 0001527 113.1134 247.0156 13.13471857153129
ONEWEB-0570             
1 55149U 23004K   26038.30283852  .00000074  00000+0  15426-3 0  9994
2 55149  87.9206   1.2643 0002339  84.5126 275.6273 13.18684475152576
ONEWEB-0571             
1 55150U 23004L   26038.29624037  .00000126  00000+0  28810-3 0  9997
2 55150  87.9210   1.2644 0002335 114.3651 245.7725 13.18688556152580
ONEWEB-0572             
1 55151U 23004M   26037.98505553  .00000058  00000+0  11547-3 0  9997
2 55151  87.9099  31.7337 0001986  92.9123 267.2236 13.17648670150338
ONEWEB-0573             
1 55152U 23004N   26038.28964006  .00000013  00000+0  72703-6 0  9999
2 55152  87.9204   1.2677 0002443  97.1986 262.9424 13.18684009152575
ONEWEB-0588             
1 55153U 23004P   26038.28303804 -.00000031  00000+0 -11246-3 0  9997
2 55153  87.9206   1.2680 0002249  84.8298 275.3091 13.18687338152571
ONEWEB-0598             
1 55154U 23004Q   26038.07426982  .00000272  00000+0  73141-3 0  9995
2 55154  87.8820  46.9609 0001772 110.5152 249.6167 13.11417971148846
ONEWEB-0599             
1 55155U 23004R   26038.02218057 -.00000105  00000+0 -30382-3 0  9990
2 55155  87.9102  31.7262 0001632  92.8548 267.2771 13.17646706150345
ONEWEB-0614             
1 55156U 23004S   26038.06918393  .00000066  00000+0  15062-3 0  9997
2 55156  87.8821  46.9716 0002122  81.9857 278.1511 13.11418461148789
ONEWEB-0616             
1 55157U 23004T   26037.98842387  .00000039  00000+0  66350-4 0  9994
2 55157  87.9111  31.7294 0000862  81.9201 278.2028 13.17647247150552
