[{"OBJECT_NAME":"ONEWEB-0533","OBJECT_ID":"2023-004B","EPOCH":"2026-02-06T22:32:42.914112","MEAN_MOTION":13.12441957,"ECCENTRICITY":0.0001794,"INCLINATION":87.8955,"RA_OF_ASC_NODE":16.5184,"ARG_OF_PERICENTER":78.3262,"MEAN_ANOMALY":281.8068,"EPHEMERIS_TYPE":0,"CLASSIFICATION_TYPE":"U","NORAD_CAT_ID":55141,"ELEMENT_SET_NO":999,"REV_AT_EPOCH":15097,"BSTAR":0.00046692,"MEAN_MOTION_DOT":1.81e-6,"MEAN_MOTION_DDOT":0},{"OBJECT_NAME":"ONEWEB-0541","OBJECT_ID":"2023-004C","EPOCH":"2026-02-07T00:28:49.143072","MEAN_MOTION":13.11414809,"ECCENTRICITY":0.00019187,"INCLINATION":87.8826,"RA_OF_ASC_NODE":46.9492,"ARG_OF_PERICENTER":93.3516,"MEAN_ANOMALY":266.7831,"EPHEMERIS_TYPE":0,"CLASSIFICATION_TYPE":"U","NORAD_CAT_ID":55142,"ELEMENT_SET_NO":999,"REV_AT_EPOCH":14888,"BSTAR":0.00085776843,"MEAN_MOTION_DOT":3.17e-6,"MEAN_MOTION_DDOT":0},{"OBJECT_NAME":"ONEWEB-0543","OBJECT_ID":"2023-004D","EPOCH":"2026-02-07T06:19:05.760768","MEAN_MOTION":13.18686216,"ECCENTRICITY":0.0001504,"INCLINATION":87.9197,"RA_OF_ASC_NODE":1.277,"ARG_OF_PERICENTER":80.9674,"MEAN_ANOMALY":279.1629,"EPHEMERIS_TYPE":0,"CLASSIFICATION_TYPE":"U","NORAD_CAT_ID":55143,"ELEMENT_SET_NO":999,"REV_AT_EPOCH":15257,"BSTAR":-0.00014630101,"MEAN_MOTION_DOT":-4.5e-7,"MEAN_MOTION_DDOT":0},{"OBJECT_NAME":"ONEWEB-0544","OBJECT_ID":"2023-004E","EPOCH":"2026-02-07T06:09:34.721568","MEAN_MOTION":13.18683791,"ECCENTRICITY":0.00017526,"INCLINATION":87.9206,"RA_OF_ASC_NODE":1.2733,"ARG_OF_PERICENTER":89.7536,"MEAN_ANOMALY":270.3797,"EPHEMERIS_TYPE":0,"CLASSIFICATION_TYPE":"U","NORAD_CAT_ID":55144,"ELEMENT_SET_NO":999,"REV_AT_EPOCH":15257,"BSTAR":-1.8546149e-5,"MEAN_MOTION_DOT":6.0e-8,"MEAN_MOTION_DDOT":0},{"OBJECT_NAME":"ONEWEB-0560","OBJECT_ID":"2023-004F","EPOCH":"2026-02-07T06:00:05.052672","MEAN_MOTION":13.18686204,"ECCENTRICITY":0.00016895,"INCLINATION":87.9215,"RA_OF_ASC_NODE":1.2638,"ARG_OF_PERICENTER":89.7085,"MEAN_ANOMALY":270.4241,"EPHEMERIS_TYPE":0,"CLASSIFICATION_TYPE":"U","NORAD_CAT_ID":55145,"ELEMENT_SET_NO":999,"REV_AT_EPOCH":15258,"BSTAR":-0.00012060831,"MEAN_MOTION_DOT":-3.5e-7,"MEAN_MOTION_DDOT":0},{"OBJECT_NAME":"ONEWEB-0565","OBJECT_ID":"2023-004G","EPOCH":"2026-02-06T22:33:32.468832","MEAN_MOTION":13.18686336,"ECCENTRICITY":0.0002099,"INCLINATION":87.9198,"RA_OF_ASC_NODE":1.3658,"ARG_OF_PERICENTER":95.4918,"MEAN_ANOMALY":264.6453,"EPHEMERIS_TYPE":0,"CLASSIFICATION_TYPE":"U","NORAD_CAT_ID":55146,"ELEMENT_SET_NO":999,"REV_AT_EPOCH":15253,"BSTAR":-7.3724e-5,"MEAN_MOTION_DOT":-1.6e-7,"MEAN_MOTION_DDOT":0},{"OBJECT_NAME":"ONEWEB-0567","OBJECT_ID":"2023-004H","EPOCH":"2026-02-07T07:30:20.793888","MEAN_MOTION":13.18687001,"ECCENTRICITY":0.00019336,"INCLINATION":87.9213,"RA_OF_ASC_NODE":1.2636,"ARG_OF_PERICENTER":96.1897,"MEAN_ANOMALY":263.9456,"EPHEMERIS_TYPE":0,"CLASSIFICATION_TYPE":"U","NORAD_CAT_ID":55147,"ELEMENT_SET_NO":999,"REV_AT_EPOCH":15258,"BSTAR":0.00014707631,"MEAN_MOTION_DOT":7.1e-7,"MEAN_MOTION_DDOT":0},{"OBJECT_NAME":"ONEWEB-0569","OBJECT_ID":"2023-004J","EPOCH":"2026-02-07T06:39:50.916096","MEAN_MOTION":13.13471857,"ECCENTRICITY":0.00015273,"INCLINATION":87.9039,"RA_OF_ASC_NODE":346.0324,"ARG_OF_PERICENTER":113.1134,"MEAN_ANOMALY":247.0156,"EPHEMERIS_TYPE":0,"CLASSIFICATION_TYPE":"U","NORAD_CAT_ID":55148,"ELEMENT_SET_NO":999,"REV_AT_EPOCH":15312,"BSTAR":-0.00024217442,"MEAN_MOTION_DOT":-7.6e-7,"MEAN_MOTION_DDOT":0},{"OBJECT_NAME":"ONEWEB-0570","OBJECT_ID":"2023-004K","EPOCH":"2026-02-07T07:16:05.248128","MEAN_MOTION":13.18684475,"ECCENTRICITY":0.00023397,"INCLINATION":87.9206,"RA_OF_ASC_NODE":1.2643,"ARG_OF_PERICENTER":84.5126,"MEAN_ANOMALY":275.6273,"EPHEMERIS_TYPE":0,"CLASSIFICATION_TYPE":"U","NORAD_CAT_ID":55149,"ELEMENT_SET_NO":999,"REV_AT_EPOCH":15257,"BSTAR":0.00015425614,"MEAN_MOTION_DOT":7.4e-7,"MEAN_MOTION_DDOT":0},{"OBJECT_NAME":"ONEWEB-0571","OBJECT_ID":"2023-004L","EPOCH":"2026-02-07T07:06:35.167968","MEAN_MOTION":13.18688556,"ECCENTRICITY":0.00023357,"INCLINATION":87.921,"RA_OF_ASC_NODE":1.2644,"ARG_OF_PERICENTER":114.3651,"MEAN_ANOMALY":245.7725,"EPHEMERIS_TYPE":0,"CLASSIFICATION_TYPE":"U","NORAD_CAT_ID":55150,"ELEMENT_SET_NO":999,"REV_AT_EPOCH":15258,"BSTAR":0.00028809519,"MEAN_MOTION_DOT":1.26e-6,"MEAN_MOTION_DDOT":0},{"OBJECT_NAME":"ONEWEB-0572","OBJECT_ID":"2023-004M","EPOCH":"2026-02-06T23:38:28.797792","MEAN_MOTION":13.1764867,"ECCENTRICITY":0.0001986,"INCLINATION":87.9099,"RA_OF_ASC_NODE":31.7337,"ARG_OF_PERICENTER":92.9123,"MEAN_ANOMALY":267.2236,"EPHEMERIS_TYPE":0,"CLASSIFICATION_TYPE":"U","NORAD_CAT_ID":55151,"ELEMENT_SET_NO":999,"REV_AT_EPOCH":15033,"BSTAR":0.00011547,"MEAN_MOTION_DOT":5.8e-7,"MEAN_MOTION_DDOT":0},{"OBJECT_NAME":"ONEWEB-0573","OBJECT_ID":"2023-004N","EPOCH":"2026-02-07T06:57:04.901184","MEAN_MOTION":13.18684009,"ECCENTRICITY":0.00024435,"INCLINATION":87.9204,"RA_OF_ASC_NODE":1.2677,"ARG_OF_PERICENTER":97.1986,"MEAN_ANOMALY":262.9424,"EPHEMERIS_TYPE":0,"CLASSIFICATION_TYPE":"U","NORAD_CAT_ID":55152,"ELEMENT_SET_NO":999,"REV_AT_EPOCH":15257,"BSTAR":7.27033e-7,"MEAN_MOTION_DOT":1.3e-7,"MEAN_MOTION_DDOT":0},{"OBJECT_NAME":"ONEWEB-0588","OBJECT_ID":"2023-004P","EPOCH":"2026-02-07T06:47:34.486656","MEAN_MOTION":13.18687338,"ECCENTRICITY":0.00022498,"INCLINATION":87.9206,"RA_OF_ASC_NODE":1.268,"ARG_OF_PERICENTER":84.8298,"MEAN_ANOMALY":275.3091,"EPHEMERIS_TYPE":0,"CLASSIFICATION_TYPE":"U","NORAD_CAT_ID":55153,"ELEMENT_SET_NO":999,"REV_AT_EPOCH":15257,"BSTAR":-0.0001124554,"MEAN_MOTION_DOT":-3.1e-7,"MEAN_MOTION_DDOT":0},{"OBJECT_NAME":"ONEWEB-0598","OBJECT_ID":"2023-004Q","EPOCH":"2026-02-07T01:46:56.912448","MEAN_MOTION":13.11417971,"ECCENTRICITY":0.00017728,"INCLINATION":87.882,"RA_OF_ASC_NODE":46.9609,"ARG_OF_PERICENTER":110.5152,"MEAN_ANOMALY":249.6167,"EPHEMERIS_TYPE":0,"CLASSIFICATION_TYPE":"U","NORAD_CAT_ID":55154,"ELEMENT_SET_NO":999,"REV_AT_EPOCH":14884,"BSTAR":0.00073140889,"MEAN_MOTION_DOT":2.72e-6,"MEAN_MOTION_DDOT":0},{"OBJECT_NAME":"ONEWEB-0599","OBJECT_ID":"2023-004R","EPOCH":"2026-02-07T00:31:56.401248","MEAN_MOTION":13.17646706,"ECCENTRICITY":0.00016321,"INCLINATION":87.9102,"RA_OF_ASC_NODE":31.7262,"ARG_OF_PERICENTER":92.8548,"MEAN_ANOMALY":267.2771,"EPHEMERIS_TYPE":0,"CLASSIFICATION_TYPE":"U","NORAD_CAT_ID":55155,"ELEMENT_SET_NO":999,"REV_AT_EPOCH":15034,"BSTAR":-0.00030382367,"MEAN_MOTION_DOT":-1.05e-6,"MEAN_MOTION_DDOT":0},{"OBJECT_NAME":"ONEWEB-0614","OBJECT_ID":"2023-004S","EPOCH":"2026-02-07T01:39:37.491552","MEAN_MOTION":13.11418461,"ECCENTRICITY":0.00021227,"INCLINATION":87.8821,"RA_OF_ASC_NODE":46.9716,"ARG_OF_PERICENTER":81.9857,"MEAN_ANOMALY":278.1511,"EPHEMERIS_TYPE":0,"CLASSIFICATION_TYPE":"U","NORAD_CAT_ID":55156,"ELEMENT_SET_NO":999,"REV_AT_EPOCH":14878,"BSTAR":0.0001506203,"MEAN_MOTION_DOT":6.6e-7,"MEAN_MOTION_DDOT":0},{"OBJECT_NAME":"ONEWEB-0616","OBJECT_ID":"2023-004T","EPOCH":"2026-02-06T23:43:19.822368","MEAN_MOTION":13.17647247,"ECCENTRICITY":8.62e-5,"INCLINATION":87.9111,"RA_OF_ASC_NODE":31.7294,"ARG_OF_PERICENTER":81.9201,"MEAN_ANOMALY":278.2028,"EPHEMERIS_TYPE":0,"CLASSIFICATION_TYPE":"U","NORAD_CAT_ID":55157,"ELEMENT_SET_NO":999,"REV_AT_EPOCH":15055,"BSTAR":6.635e-5,"MEAN_MOTION_DOT":3.9e-7,"MEAN_MOTION_DDOT":0}]
